[{"OBJECT_NAME":"STARLINK-34659","OBJECT_ID":"2025-157K","EPOCH":"2025-12-08T05:38:12.622848","MEAN_MOTION":15.39658804,"ECCENTRICITY":0.00021349,"INCLINATION":53.1577,"RA_OF_ASC_NODE":54.5912,"ARG_OF_PERICENTER":96.516,"MEAN_ANOMALY":263.6087,"EPHEMERIS_TYPE":0,"CLASSIFICATION_TYPE":"U","NORAD_CAT_ID":64913,"ELEMENT_SET_NO":999,"REV_AT_EPOCH":2201,"BSTAR":0.0014611238,"MEAN_MOTION_DOT":0.00058571,"MEAN_MOTION_DDOT":0},{"OBJECT_NAME":"STARLINK-34571","OBJECT_ID":"2025-157L","EPOCH":"2025-12-07T15:23:32.806752","MEAN_MOTION":15.3963924,"ECCENTRICITY":3.931e-5,"INCLINATION":53.157,"RA_OF_ASC_NODE":57.2841,"ARG_OF_PERICENTER":10.6355,"MEAN_ANOMALY":349.4658,"EPHEMERIS_TYPE":0,"CLASSIFICATION_TYPE":"U","NORAD_CAT_ID":64914,"ELEMENT_SET_NO":999,"REV_AT_EPOCH":2192,"BSTAR":0.0024165861,"MEAN_MOTION_DOT":0.0009757,"MEAN_MOTION_DDOT":0},{"OBJECT_NAME":"STARLINK-34636","OBJECT_ID":"2025-157M","EPOCH":"2025-12-08T05:11:27.649536","MEAN_MOTION":15.39660161,"ECCENTRICITY":5.318e-5,"INCLINATION":53.1581,"RA_OF_ASC_NODE":54.4722,"ARG_OF_PERICENTER":61.9592,"MEAN_ANOMALY":298.1466,"EPHEMERIS_TYPE":0,"CLASSIFICATION_TYPE":"U","NORAD_CAT_ID":64915,"ELEMENT_SET_NO":999,"REV_AT_EPOCH":2206,"BSTAR":0.0016938822,"MEAN_MOTION_DOT":0.00068051,"MEAN_MOTION_DDOT":0},{"OBJECT_NAME":"STARLINK-34695","OBJECT_ID":"2025-157N","EPOCH":"2025-12-06T12:34:22.197792","MEAN_MOTION":15.39637158,"ECCENTRICITY":0.00011389,"INCLINATION":53.1585,"RA_OF_ASC_NODE":62.3948,"ARG_OF_PERICENTER":68.1577,"MEAN_ANOMALY":291.9549,"EPHEMERIS_TYPE":0,"CLASSIFICATION_TYPE":"U","NORAD_CAT_ID":64916,"ELEMENT_SET_NO":999,"REV_AT_EPOCH":2180,"BSTAR":0.0030695157,"MEAN_MOTION_DOT":0.00124472,"MEAN_MOTION_DDOT":0},{"OBJECT_NAME":"STARLINK-34653","OBJECT_ID":"2025-157P","EPOCH":"2025-12-07T22:37:30.302976","MEAN_MOTION":15.39629409,"ECCENTRICITY":0.00025653,"INCLINATION":53.1587,"RA_OF_ASC_NODE":55.6078,"ARG_OF_PERICENTER":95.6344,"MEAN_ANOMALY":264.4953,"EPHEMERIS_TYPE":0,"CLASSIFICATION_TYPE":"U","NORAD_CAT_ID":64917,"ELEMENT_SET_NO":999,"REV_AT_EPOCH":2197,"BSTAR":0.0018922716,"MEAN_MOTION_DOT":0.00076076,"MEAN_MOTION_DDOT":0},{"OBJECT_NAME":"STARLINK-34611","OBJECT_ID":"2025-157Q","EPOCH":"2025-12-08T04:31:57.872064","MEAN_MOTION":15.39660859,"ECCENTRICITY":0.00019764,"INCLINATION":53.1591,"RA_OF_ASC_NODE":55.0161,"ARG_OF_PERICENTER":86.8017,"MEAN_ANOMALY":273.3214,"EPHEMERIS_TYPE":0,"CLASSIFICATION_TYPE":"U","NORAD_CAT_ID":64918,"ELEMENT_SET_NO":999,"REV_AT_EPOCH":2205,"BSTAR":0.0015430396,"MEAN_MOTION_DOT":0.00061908,"MEAN_MOTION_DDOT":0},{"OBJECT_NAME":"STARLINK-34599","OBJECT_ID":"2025-157R","EPOCH":"2025-12-08T04:58:33.065760","MEAN_MOTION":15.39582884,"ECCENTRICITY":0.00021212,"INCLINATION":53.1567,"RA_OF_ASC_NODE":54.4064,"ARG_OF_PERICENTER":103.4,"MEAN_ANOMALY":256.7242,"EPHEMERIS_TYPE":0,"CLASSIFICATION_TYPE":"U","NORAD_CAT_ID":64919,"ELEMENT_SET_NO":999,"REV_AT_EPOCH":2206,"BSTAR":0.0018496096,"MEAN_MOTION_DOT":0.00074218,"MEAN_MOTION_DDOT":0},{"OBJECT_NAME":"STARLINK-34069","OBJECT_ID":"2025-157S","EPOCH":"2025-12-07T22:11:23.225568","MEAN_MOTION":15.39633564,"ECCENTRICITY":0.00014596,"INCLINATION":53.1573,"RA_OF_ASC_NODE":56.2097,"ARG_OF_PERICENTER":66.1351,"MEAN_ANOMALY":293.9807,"EPHEMERIS_TYPE":0,"CLASSIFICATION_TYPE":"U","NORAD_CAT_ID":64920,"ELEMENT_SET_NO":999,"REV_AT_EPOCH":2201,"BSTAR":0.0020322775,"MEAN_MOTION_DOT":0.00081803,"MEAN_MOTION_DDOT":0},{"OBJECT_NAME":"STARLINK-34699","OBJECT_ID":"2025-157T","EPOCH":"2025-12-08T05:52:04.037088","MEAN_MOTION":15.39624542,"ECCENTRICITY":7.481e-5,"INCLINATION":53.159,"RA_OF_ASC_NODE":54.6511,"ARG_OF_PERICENTER":103.7336,"MEAN_ANOMALY":256.3752,"EPHEMERIS_TYPE":0,"CLASSIFICATION_TYPE":"U","NORAD_CAT_ID":64921,"ELEMENT_SET_NO":999,"REV_AT_EPOCH":2206,"BSTAR":0.0014065922,"MEAN_MOTION_DOT":0.00056288,"MEAN_MOTION_DDOT":0},{"OBJECT_NAME":"STARLINK-34700","OBJECT_ID":"2025-157U","EPOCH":"2025-12-08T05:38:41.539200","MEAN_MOTION":15.39662639,"ECCENTRICITY":0.00014577,"INCLINATION":53.1562,"RA_OF_ASC_NODE":54.5905,"ARG_OF_PERICENTER":85.4099,"MEAN_ANOMALY":274.7073,"EPHEMERIS_TYPE":0,"CLASSIFICATION_TYPE":"U","NORAD_CAT_ID":64922,"ELEMENT_SET_NO":999,"REV_AT_EPOCH":2201,"BSTAR":0.0014017748,"MEAN_MOTION_DOT":0.00056164,"MEAN_MOTION_DDOT":0},{"OBJECT_NAME":"STARLINK-34643","OBJECT_ID":"2025-157V","EPOCH":"2025-12-07T15:24:01.716192","MEAN_MOTION":15.39624779,"ECCENTRICITY":0.00013026,"INCLINATION":53.1579,"RA_OF_ASC_NODE":57.2824,"ARG_OF_PERICENTER":68.841,"MEAN_ANOMALY":291.2734,"EPHEMERIS_TYPE":0,"CLASSIFICATION_TYPE":"U","NORAD_CAT_ID":64923,"ELEMENT_SET_NO":999,"REV_AT_EPOCH":2197,"BSTAR":0.0023394362,"MEAN_MOTION_DOT":0.00094356,"MEAN_MOTION_DDOT":0},{"OBJECT_NAME":"STARLINK-34199","OBJECT_ID":"2025-157W","EPOCH":"2025-12-07T21:44:37.022784","MEAN_MOTION":15.39651328,"ECCENTRICITY":1.459e-5,"INCLINATION":53.1561,"RA_OF_ASC_NODE":56.0902,"ARG_OF_PERICENTER":58.4025,"MEAN_ANOMALY":301.6994,"EPHEMERIS_TYPE":0,"CLASSIFICATION_TYPE":"U","NORAD_CAT_ID":64924,"ELEMENT_SET_NO":999,"REV_AT_EPOCH":2196,"BSTAR":0.0011799998,"MEAN_MOTION_DOT":0.00047141,"MEAN_MOTION_DDOT":0},{"OBJECT_NAME":"STARLINK-34579","OBJECT_ID":"2025-157X","EPOCH":"2025-12-08T04:11:54.201696","MEAN_MOTION":15.39648358,"ECCENTRICITY":0.00019896,"INCLINATION":53.1574,"RA_OF_ASC_NODE":54.9271,"ARG_OF_PERICENTER":81.7171,"MEAN_ANOMALY":278.4059,"EPHEMERIS_TYPE":0,"CLASSIFICATION_TYPE":"U","NORAD_CAT_ID":64925,"ELEMENT_SET_NO":999,"REV_AT_EPOCH":2205,"BSTAR":0.0015835628,"MEAN_MOTION_DOT":0.00063532,"MEAN_MOTION_DDOT":0},{"OBJECT_NAME":"STARLINK-34543","OBJECT_ID":"2025-157Y","EPOCH":"2025-12-08T04:51:53.086464","MEAN_MOTION":15.39659121,"ECCENTRICITY":0.00018753,"INCLINATION":53.155,"RA_OF_ASC_NODE":54.384,"ARG_OF_PERICENTER":76.4071,"MEAN_ANOMALY":283.7143,"EPHEMERIS_TYPE":0,"CLASSIFICATION_TYPE":"U","NORAD_CAT_ID":64926,"ELEMENT_SET_NO":999,"REV_AT_EPOCH":2201,"BSTAR":0.0013914564,"MEAN_MOTION_DOT":0.00055738,"MEAN_MOTION_DDOT":0},{"OBJECT_NAME":"STARLINK-34661","OBJECT_ID":"2025-157Z","EPOCH":"2025-12-07T22:31:18.293088","MEAN_MOTION":15.39597043,"ECCENTRICITY":0.00031101,"INCLINATION":53.1542,"RA_OF_ASC_NODE":55.5725,"ARG_OF_PERICENTER":90.3626,"MEAN_ANOMALY":269.7735,"EPHEMERIS_TYPE":0,"CLASSIFICATION_TYPE":"U","NORAD_CAT_ID":64927,"ELEMENT_SET_NO":999,"REV_AT_EPOCH":2174,"BSTAR":0.0011843969,"MEAN_MOTION_DOT":0.00047238,"MEAN_MOTION_DDOT":0},{"OBJECT_NAME":"STARLINK-34248","OBJECT_ID":"2025-157AA","EPOCH":"2025-12-08T05:18:37.678752","MEAN_MOTION":15.39666664,"ECCENTRICITY":9.758e-5,"INCLINATION":53.1578,"RA_OF_ASC_NODE":54.5012,"ARG_OF_PERICENTER":75.6033,"MEAN_ANOMALY":284.508,"EPHEMERIS_TYPE":0,"CLASSIFICATION_TYPE":"U","NORAD_CAT_ID":64928,"ELEMENT_SET_NO":999,"REV_AT_EPOCH":2206,"BSTAR":0.001310342,"MEAN_MOTION_DOT":0.00052455,"MEAN_MOTION_DDOT":0},{"OBJECT_NAME":"STARLINK-34290","OBJECT_ID":"2025-157AB","EPOCH":"2025-12-08T05:11:56.730912","MEAN_MOTION":15.39655046,"ECCENTRICITY":0.00014129,"INCLINATION":53.1589,"RA_OF_ASC_NODE":54.4716,"ARG_OF_PERICENTER":119.1844,"MEAN_ANOMALY":240.9302,"EPHEMERIS_TYPE":0,"CLASSIFICATION_TYPE":"U","NORAD_CAT_ID":64929,"ELEMENT_SET_NO":999,"REV_AT_EPOCH":2206,"BSTAR":0.00097511472,"MEAN_MOTION_DOT":0.00038848,"MEAN_MOTION_DDOT":0},{"OBJECT_NAME":"STARLINK-34220","OBJECT_ID":"2025-157AC","EPOCH":"2025-12-08T04:38:30.667200","MEAN_MOTION":15.39653942,"ECCENTRICITY":0.00014272,"INCLINATION":53.157,"RA_OF_ASC_NODE":54.319,"ARG_OF_PERICENTER":100.8051,"MEAN_ANOMALY":259.3115,"EPHEMERIS_TYPE":0,"CLASSIFICATION_TYPE":"U","NORAD_CAT_ID":64930,"ELEMENT_SET_NO":999,"REV_AT_EPOCH":2195,"BSTAR":0.0012701432,"MEAN_MOTION_DOT":0.00050801,"MEAN_MOTION_DDOT":0},{"OBJECT_NAME":"STARLINK-34715","OBJECT_ID":"2025-157AD","EPOCH":"2025-12-07T13:30:29.102112","MEAN_MOTION":15.39618466,"ECCENTRICITY":9.534e-5,"INCLINATION":53.1554,"RA_OF_ASC_NODE":57.5001,"ARG_OF_PERICENTER":73.5429,"MEAN_ANOMALY":286.5681,"EPHEMERIS_TYPE":0,"CLASSIFICATION_TYPE":"U","NORAD_CAT_ID":64931,"ELEMENT_SET_NO":999,"REV_AT_EPOCH":2196,"BSTAR":0.0017210617,"MEAN_MOTION_DOT":0.00069064,"MEAN_MOTION_DDOT":0},{"OBJECT_NAME":"STARLINK-34705","OBJECT_ID":"2025-158A","EPOCH":"2025-12-08T04:23:14.696736","MEAN_MOTION":15.05652122,"ECCENTRICITY":0.00027715,"INCLINATION":97.5999,"RA_OF_ASC_NODE":203.8371,"ARG_OF_PERICENTER":83.6167,"MEAN_ANOMALY":276.5375,"EPHEMERIS_TYPE":0,"CLASSIFICATION_TYPE":"U","NORAD_CAT_ID":64932,"ELEMENT_SET_NO":999,"REV_AT_EPOCH":2158,"BSTAR":0.0008838744,"MEAN_MOTION_DOT":0.00012717,"MEAN_MOTION_DDOT":0},{"OBJECT_NAME":"STARLINK-34737","OBJECT_ID":"2025-158B","EPOCH":"2025-12-08T04:07:16.442976","MEAN_MOTION":15.05638668,"ECCENTRICITY":0.00019721,"INCLINATION":97.6036,"RA_OF_ASC_NODE":203.8488,"ARG_OF_PERICENTER":86.32,"MEAN_ANOMALY":273.8253,"EPHEMERIS_TYPE":0,"CLASSIFICATION_TYPE":"U","NORAD_CAT_ID":64933,"ELEMENT_SET_NO":999,"REV_AT_EPOCH":2158,"BSTAR":-0.0010279692,"MEAN_MOTION_DOT":-0.00014858,"MEAN_MOTION_DDOT":0},{"OBJECT_NAME":"STARLINK-34775","OBJECT_ID":"2025-158C","EPOCH":"2025-12-08T04:03:18.361728","MEAN_MOTION":15.05655148,"ECCENTRICITY":0.00017582,"INCLINATION":97.6029,"RA_OF_ASC_NODE":203.8601,"ARG_OF_PERICENTER":48.2924,"MEAN_ANOMALY":311.8453,"EPHEMERIS_TYPE":0,"CLASSIFICATION_TYPE":"U","NORAD_CAT_ID":64934,"ELEMENT_SET_NO":999,"REV_AT_EPOCH":2158,"BSTAR":0.00054259143,"MEAN_MOTION_DOT":7.778e-5,"MEAN_MOTION_DDOT":0},{"OBJECT_NAME":"STARLINK-34726","OBJECT_ID":"2025-158D","EPOCH":"2025-12-08T05:07:07.004064","MEAN_MOTION":15.0565631,"ECCENTRICITY":0.00023735,"INCLINATION":97.6029,"RA_OF_ASC_NODE":203.9583,"ARG_OF_PERICENTER":77.8867,"MEAN_ANOMALY":282.2626,"EPHEMERIS_TYPE":0,"CLASSIFICATION_TYPE":"U","NORAD_CAT_ID":64935,"ELEMENT_SET_NO":999,"REV_AT_EPOCH":2159,"BSTAR":-0.00035230695,"MEAN_MOTION_DOT":-5.142e-5,"MEAN_MOTION_DDOT":0}]
